{"spkid": "20414286", "covariance": {"labels": ["e", "q", "tp", "node", "peri", "i"], "data": [["5.180239076645419E-15", "-4.812421257679602E-15", "3.212234353077207E-13", "-2.411084947050784E-14", "7.093291123016338E-14", "3.93693156176867E-13"], ["-4.812421257679602E-15", "4.472835208647813E-15", "-2.865608457673741E-13", "3.349355793988092E-14", "-6.639721232502633E-14", "-3.666850745317147E-13"], ["3.212234353077207E-13", "-2.865608457673741E-13", "6.012805152497076E-10", "2.040955935056355E-10", "2.786839712086474E-10", "-4.251053887262589E-11"], ["-2.411084947050784E-14", "3.349355793988092E-14", "2.040955935056355E-10", "4.379477636274233E-10", "-2.486560816184029E-10", "-1.321510072682172E-10"], ["7.093291123016338E-14", "-6.639721232502633E-14", "2.786839712086474E-10", "-2.486560816184029E-10", "4.673482554817776E-10", "6.970688621123904E-11"], ["3.93693156176867E-13", "-3.666850745317147E-13", "-4.251053887262589E-11", "-1.321510072682172E-10", "6.970688621123904E-11", "1.086383036185914E-10"]], "elements": [{"label": "e", "name": "e", "sigma": 7.19738777380059e-08, "title": "eccentricity", "value": ".1992083797678882", "units": null}, {"name": "q", "sigma": 6.68792584337462e-08, "units": "au", "value": ".7391263340164915", "title": "perihelion distance", "label": "q"}, {"name": "tp", "sigma": 2.45210219046782e-05, "value": "2457998.777526404180", "title": "time of perihelion passage", "units": "TDB", "label": "tp"}, {"sigma": 2.09272015240314e-05, "name": "om", "units": "deg", "value": "177.6105940001411", "title": "longitude of the ascending node", "label": "node"}, {"label": "peri", "sigma": 2.16182389542205e-05, "name": "w", "title": "argument of perihelion", "value": "295.847052523473", "units": "deg"}, {"label": "i", "sigma": 1.04229699998893e-05, "name": "i", "units": "deg", "title": "inclination", "value": "21.8446185165271"}], "epoch": "2458149.5"}, "elements": [{"sigma": "7.1974E-8", "name": "e", "value": ".1991970273355303", "title": "eccentricity", "units": null, "label": "e"}, {"sigma": "2.2069E-9", "name": "a", "units": "au", "value": ".9230842234323529", "title": "semi-major axis", "label": "a"}, {"sigma": "6.6997E-8", "name": "q", "title": "perihelion distance", "value": ".7392085901443017", "units": "au", "label": "q"}, {"value": "21.84557880163351", "title": "inclination; angle with respect to x-y ecliptic plane", "units": "deg", "sigma": "1.0426E-5", "name": "i", "label": "i"}, {"label": "node", "sigma": "2.0913E-5", "name": "om", "units": "deg", "title": "longitude of the ascending node", "value": "177.566911915259"}, {"value": "295.8824805978683", "title": "argument of perihelion", "units": "deg", "sigma": "2.1661E-5", "name": "w", "label": "peri"}, {"label": "M", "title": "mean anomaly", "value": "318.4941002344241", "units": "deg", "sigma": "3.2738E-5", "name": "ma"}, {"sigma": "2.9549E-5", "name": "tp", "units": "TDB", "value": "2461237.848034533845", "title": "time of perihelion passage", "label": "tp"}, {"units": "d", "title": "sidereal orbital period", "value": "323.9368983234344", "sigma": "1.1617E-6", "name": "per", "label": "period"}, {"name": "n", "sigma": "3.9854E-9", "units": "deg/d", "value": "1.111327551332415", "title": "mean motion", "label": "n"}, {"label": "Q", "sigma": "2.6465E-9", "name": "ad", "title": "aphelion distance", "value": "1.106959856720404", "units": "au"}], "epoch": "2461200.5"}